EUTELSAT QUANTUM        
1 49056U 21069B   25324.66764339  .00000148  00000+0  00000+0 0  9993
2 49056   0.0326  44.9422 0002956 209.9578  93.0975  1.00271219 15837
EUTELSAT KONNECT VHTS   
1 53765U 22110A   25324.66081882  .00000039  00000+0  00000+0 0  9997
2 53765   0.0712 105.3804 0002500 108.8669  86.3169  1.00269892  4738
EUTELSAT HOTBIRD 13F    
1 54048U 22134A   25324.66281218  .00000109  00000+0  00000+0 0  9991
2 54048   0.0501 289.6348 0002153  74.4880 307.4252  1.00272923 11282
EUTELSAT HOTBIRD 13G    
1 54225U 22146A   25324.66289883  .00000109  00000+0  00000+0 0  9997
2 54225   0.0439 240.2458 0001909 293.1172 138.2274  1.00271098  5375
EUTELSAT 10B            
1 54259U 22157A   25324.66229215  .00000090  00000+0  00000+0 0  9998
2 54259   0.0717 103.4874 0000826  22.6333 182.2399  1.00272429 10938
EUTELSAT 36D            
1 59346U 24059A   25322.86572512  .00000175  00000+0  00000+0 0  9998
2 59346   0.0137 286.4661 0000286  79.6303  39.5895  1.00271633  6038
